SCD 1                   
1 22490U 93009B   26152.49266252  .00000437  00000+0  68675-4 0  9999
2 22490  24.9707 304.4817 0041833 332.1504  54.2695 14.46112655758840
TECHSAT 1B (GO-32)      
1 25397U 98043D   26154.57772251  .00000069  00000+0  49972-4 0  9993
2 25397  99.0064 146.9934 0000319 213.6137 146.5021 14.24425649449397
SCD 2                   
1 25504U 98060A   26155.25824970  .00000420  00000+0  66370-4 0  9996
2 25504  24.9935 151.8913 0016658 347.4640  88.7459 14.45520563458454
DLR-TUBSAT              
1 25757U 99029B   26155.20427424  .00000136  00000+0  45301-4 0  9995
2 25757  98.6692 150.2812 0014816  33.8590 326.3547 14.52423384431368
TERRA                   
1 25994U 99068A   26155.28503641  .00000491  00000+0  10892-3 0  9995
2 25994  97.9462 205.3422 0000810 263.3577 185.5303 14.61092716407720
MAROC-TUBSAT            
1 27004U 01056D   26155.01675275 -.00000034  00000+0  13966-4 0  9993
2 27004  99.8077 331.6285 0019905 174.4491 304.2897 13.70261883224388
AQUA                    
1 27424U 02022A   26155.74337534  .00000963  00000+0  20134-3 0  9990
2 27424  98.4271 124.7782 0001589  56.6102  42.0718 14.62138630281452
SHIYAN-1 (SY-1)         
1 28220U 04012A   26155.13402434  .00016062  00000+0  49920-3 0  9992
2 28220  97.8690 232.3582 0006620  74.0222 286.1747 15.33414968209090
AURA                    
1 28376U 04026A   26155.72965075  .00000953  00000+0  20267-3 0  9994
2 28376  98.3412 112.0805 0001386  70.5474 289.5876 14.61309639164397
IRS-P5 (CARTOSAT-1)     
1 28649U 05017A   26155.05909539  .00001645  00000+0  17162-3 0  9996
2 28649  97.5314 178.7190 0002679  96.8827 263.2696 14.91014053141869
SINAH 1                 
1 28893U 05043D   26155.27469104  .00000429  00000+0  90863-4 0  9998
2 28893  98.2845 289.5220 0013526 320.7964  39.2258 14.64148784 98636
RESURS-DK 1             
1 29228U 06021A   26155.01277219  .00002370  00000+0  13939-3 0  9999
2 29228  69.9332  13.6552 0006030 303.6136  56.4455 15.13154696100584
ARIRANG-2 (KOMPSAT-2)   
1 29268U 06031A   26155.86795428  .00000449  00000+0  92842-4 0  9990
2 29268  97.8303 340.9105 0015729 110.0416 356.9565 14.64652481 59675
LAPAN-TUBSAT            
1 29709U 07001A   26155.86409971  .00000096  00000+0  17573-4 0  9999
2 29709  98.1339 154.8106 0010990 221.9524 138.0849 14.85935339 49322
HAIYANG-1B              
1 31113U 07010A   26154.58027472  .00000100  00000+0  54012-4 0  9996
2 31113  98.3489 136.9535 0012340 239.3242 120.6726 14.31023350998685
COSMO-SKYMED 1          
1 31598U 07023A   26155.83674130  .00002613  00000+0  23199-3 0  9997
2 31598  97.8862 347.5897 0001501  81.3870 278.7521 14.97046420 27946
TERRASAR-X              
1 31698U 07026A   26155.67675038  .00000882  00000+0  45172-4 0  9993
2 31698  97.4453 163.5605 0001620  90.1175 270.0245 15.19148915 51324
WORLDVIEW-1 (WV-1)      
1 32060U 07041A   26155.22762445  .00007029  00000+0  29203-3 0  9990
2 32060  97.3865 275.1602 0003323  55.2782 304.8768 15.24115578 40902
YAOGAN-3                
1 32289U 07055A   26155.84415106  .00001778  00000+0  18671-3 0  9997
2 32289  97.8157 185.8444 0002047  89.0669 271.0783 14.90732248  4033
COSMO-SKYMED 2          
1 32376U 07059A   26155.80660615  .00000522  00000+0  72077-4 0  9998
2 32376  97.8885 339.5844 0001457  87.4837 272.6542 14.82161370   177
RADARSAT-2              
1 32382U 07061A   26155.86288355  .00000017  00000+0  23469-4 0  9991
2 32382  98.5776 162.9712 0001314  80.9604 279.1727 14.29982002964197
CARTOSAT-2A             
1 32783U 08021A   26155.87058435  .00000538  00000+0  79137-4 0  9999
2 32783  97.7635 204.9989 0012420 145.1915 215.0112 14.79218844976987
HUANJING 1A (HJ-1A)     
1 33320U 08041A   26155.82695009  .00000736  00000+0  94444-4 0  9996
2 33320  97.6680 142.1437 0018806 174.2701 185.8732 14.83955547956573
HUANJING 1B (HJ-1B)     
1 33321U 08041B   26155.85790971  .00001037  00000+0  13179-3 0  9994
2 33321  97.6515 145.3825 0035021 222.3833 137.4675 14.83294738956584
GEOEYE 1                
1 33331U 08042A   26155.65059178  .00000627  00000+0  12666-3 0  9995
2 33331  98.1237 229.7405 0005571  99.4575 260.7257 14.64713888948315
THEOS                   
1 33396U 08049A   26155.85045537  .00000257  00000+0  14041-3 0  9997
2 33396  98.5572 213.5340 0001289  80.0285 280.1037 14.20131955916214
COSMO-SKYMED 3          
1 33412U 08054A   26155.85873326  .00002821  00000+0  19311-3 0  9991
2 33412  97.8294  14.2245 0014435 313.6446  46.3583 15.06872564955086
YAOGAN-4                
1 33446U 08061A   26154.87678402  .00001167  00000+0  14933-3 0  9992
2 33446  97.9306  88.4859 0015609 111.7893 248.4984 14.83173206943694
GOSAT (IBUKI)           
1 33492U 09002A   26155.25193260  .00001262  00000+0  23095-3 0  9991
2 33492  98.0888 266.4978 0001642  86.7727 273.3665 14.67541190929567
DEIMOS-1                
1 35681U 09041A   26155.84180567  .00000693  00000+0  10960-3 0  9991
2 35681  97.7393 313.6053 0000755 139.2462 220.8804 14.75224665905064
